{
  "norad_id": 68555,
  "name": "STARLINK-37146",
  "history": [
    {
      "epoch": "2026-04-09T20:00:01.999008Z",
      "apogee_km": 274.51917966951805,
      "perigee_km": 273.54131108444744,
      "latitude_deg": -37.35759949634209,
      "longitude_deg": 56.063757888271155,
      "height_km": 286.1362308227286,
      "semi_major_axis_km": 6652.1672453769825,
      "eccentricity": 7.35e-05,
      "inclination_deg": 53.1586,
      "raan_deg": 228.808,
      "arg_perigee_deg": 44.7952,
      "mean_anomaly_deg": 266.2316,
      "mean_motion_rev_day": 16.00140151
    },
    {
      "epoch": "2026-04-10T12:00:02.000160Z",
      "apogee_km": 278.15021130240075,
      "perigee_km": 276.99744218720843,
      "latitude_deg": -9.848937421731753,
      "longitude_deg": 34.06251492707325,
      "height_km": 280.60714869838307,
      "semi_major_axis_km": 6655.710826744805,
      "eccentricity": 8.66e-05,
      "inclination_deg": 53.1587,
      "raan_deg": 225.3727,
      "arg_perigee_deg": 69.571,
      "mean_anomaly_deg": 122.5846,
      "mean_motion_rev_day": 15.9886242
    },
    {
      "epoch": "2026-04-11T20:00:01.000224Z",
      "apogee_km": 286.2824220148523,
      "perigee_km": 285.03495946154544,
      "latitude_deg": -41.68462733704766,
      "longitude_deg": 36.91463407182285,
      "height_km": 299.63610002357007,
      "semi_major_axis_km": 6663.795690738199,
      "eccentricity": 9.36e-05,
      "inclination_deg": 53.1576,
      "raan_deg": 218.5275,
      "arg_perigee_deg": 46.0793,
      "mean_anomaly_deg": 258.0754,
      "mean_motion_rev_day": 15.95953568
    },
    {
      "epoch": "2026-04-13T06:00:02.000160Z",
      "apogee_km": 295.50667736175456,
      "perigee_km": 294.25415199301915,
      "latitude_deg": 15.723210301513317,
      "longitude_deg": 87.72266861964248,
      "height_km": 294.969422920352,
      "semi_major_axis_km": 6673.017414677386,
      "eccentricity": 9.385e-05,
      "inclination_deg": 53.1592,
      "raan_deg": 211.2808,
      "arg_perigee_deg": 83.1268,
      "mean_anomaly_deg": 77.0935,
      "mean_motion_rev_day": 15.92646438
    },
    {
      "epoch": "2026-04-14T20:00:01.999008Z",
      "apogee_km": 306.52710425853,
      "perigee_km": 305.2691688458299,
      "latitude_deg": -39.62392445117364,
      "longitude_deg": -81.69116806332606,
      "height_km": 319.51906740923414,
      "semi_major_axis_km": 6684.035136552179,
      "eccentricity": 9.41e-05,
      "inclination_deg": 53.158,
      "raan_deg": 203.2346,
      "arg_perigee_deg": 63.3539,
      "mean_anomaly_deg": 169.1454,
      "mean_motion_rev_day": 15.8871017
    },
    {
      "epoch": "2026-04-15T20:00:01.999008Z",
      "apogee_km": 314.1940185820795,
      "perigee_km": 312.77940932894944,
      "latitude_deg": -8.333361377112244,
      "longitude_deg": -119.55787137525746,
      "height_km": 316.19689652829106,
      "semi_major_axis_km": 6691.623713955514,
      "eccentricity": 0.0001057,
      "inclination_deg": 53.1587,
      "raan_deg": 198.1753,
      "arg_perigee_deg": 72.0617,
      "mean_anomaly_deg": 118.1958,
      "mean_motion_rev_day": 15.86008442
    },
    {
      "epoch": "2026-04-16T20:00:01.999008Z",
      "apogee_km": 321.98912928707796,
      "perigee_km": 320.304929282117,
      "latitude_deg": 32.30441112314206,
      "longitude_deg": -159.95024923590222,
      "height_km": 323.011681424727,
      "semi_major_axis_km": 6699.284029284598,
      "eccentricity": 0.0001257,
      "inclination_deg": 53.1587,
      "raan_deg": 193.1357,
      "arg_perigee_deg": 63.4464,
      "mean_anomaly_deg": 74.7931,
      "mean_motion_rev_day": 15.83288931
    },
    {
      "epoch": "2026-04-17T22:00:01.999584Z",
      "apogee_km": 329.00130431176876,
      "perigee_km": 327.17372400716977,
      "latitude_deg": -8.698677518604663,
      "longitude_deg": -161.80756282307894,
      "height_km": 330.6563611665263,
      "semi_major_axis_km": 6706.2245141594685,
      "eccentricity": 0.00013626,
      "inclination_deg": 53.1593,
      "raan_deg": 187.6991,
      "arg_perigee_deg": 93.5377,
      "mean_anomaly_deg": 97.172,
      "mean_motion_rev_day": 15.80831673
    },
    {
      "epoch": "2026-04-18T20:00:01.000224Z",
      "apogee_km": 328.56813321991376,
      "perigee_km": 327.04454289350724,
      "latitude_deg": 8.509003339683632,
      "longitude_deg": 42.55435717888513,
      "height_km": 328.1128191874594,
      "semi_major_axis_km": 6705.943338056711,
      "eccentricity": 0.0001136,
      "inclination_deg": 53.1583,
      "raan_deg": 183.1056,
      "arg_perigee_deg": 107.7333,
      "mean_anomaly_deg": 262.9688,
      "mean_motion_rev_day": 15.80931099
    }
  ]
}